ONEWEB-0012             
1 44057U 19010A   26005.23969627  .00000143  00000+0  33913-3 0  9997
2 44057  87.9031 261.2333 0001929  75.3824 284.7521 13.16593793330125
ONEWEB-0010             
1 44058U 19010B   26005.26503223  .00000055  00000+0  11065-3 0  9993
2 44058  87.9042 261.2203 0001310  62.5082 297.6182 13.16594608330179
ONEWEB-0008             
1 44059U 19010C   26005.44235664  .00000011  00000+0 -44014-5 0  9990
2 44059  87.9042 261.1825 0001484  82.7644 277.3655 13.16593713330311
ONEWEB-0007             
1 44060U 19010D   26005.34818233 -.00000121  00000+0 -35554-3 0  9990
2 44060  87.9008 291.7253 0001813  64.0807 296.0510 13.15550413329965
ONEWEB-0006             
1 44061U 19010E   26005.35214744 -.00000116  00000+0 -34222-3 0  9994
2 44061  87.9015 291.6728 0001624  67.8231 292.3071 13.15549161330019
ONEWEB-0011             
1 44062U 19010F   26005.32044881  .00000171  00000+0  42062-3 0  9995
2 44062  87.9015 291.6885 0001455  78.0772 282.0521 13.15547524330006
ONEWEB-0013             
1 45131U 20008A   26005.26127353 -.00000058  00000+0 -20444-3 0  9997
2 45131  87.8507  85.7386 0002629  94.9654 265.1773 13.09449138284742
ONEWEB-0017             
1 45132U 20008B   26005.12916590 -.00000495  00000+0 -14550-2 0  9997
2 45132  87.8788  68.7785 0001513 100.8787 259.2511 13.10374440286597
